[{"OBJECT_NAME":"OBJECT B","OBJECT_ID":"2024-153B","EPOCH":"2026-03-09T23:15:18.632160","MEAN_MOTION":15.30512917,"ECCENTRICITY":0.00113423,"INCLINATION":97.6622,"RA_OF_ASC_NODE":204.9195,"ARG_OF_PERICENTER":149.8438,"MEAN_ANOMALY":210.3457,"EPHEMERIS_TYPE":0,"CLASSIFICATION_TYPE":"U","NORAD_CAT_ID":60746,"ELEMENT_SET_NO":999,"REV_AT_EPOCH":8476,"BSTAR":0.00066193599,"MEAN_MOTION_DOT":0.00019515,"MEAN_MOTION_DDOT":0},{"OBJECT_NAME":"STARLINK-32795","OBJECT_ID":"2025-034P","EPOCH":"2026-03-09T17:09:33.215328","MEAN_MOTION":15.30230622,"ECCENTRICITY":0.0001297,"INCLINATION":53.1603,"RA_OF_ASC_NODE":257.7951,"ARG_OF_PERICENTER":97.3903,"MEAN_ANOMALY":262.7245,"EPHEMERIS_TYPE":0,"CLASSIFICATION_TYPE":"U","NORAD_CAT_ID":63042,"ELEMENT_SET_NO":999,"REV_AT_EPOCH":5909,"BSTAR":0.0014329308,"MEAN_MOTION_DOT":0.00042363,"MEAN_MOTION_DDOT":0}]
